From horizons@ssd.jpl.nasa.gov Mon Jun 20 16:34:04 2022
Date: Mon, 20 Jun 2022 07:33:13 -0700 (PDT)
From: Horizons Ephemeris System <horizons@ssd.jpl.nasa.gov>
Subject: [Horizons] MAJOR BODY #C(500@399)_T(10) (1/1)

 Automated mail xmit by MAIL_REQUEST, PID= 3515 Mon Jun 20 07:33:13 2022
++++++++++++++++++++++++++++++++ (part 1 of 1)  +++++++++++++++++++++++++++++++
*******************************************************************************
 Revised: July 31, 2013                  Sun                                 10

 PHYSICAL PROPERTIES (updated 2018-Aug-15):
  GM, km^3/s^2          = 132712440041.93938  Mass, 10^24 kg        = ~1988500
  Vol. mean radius, km  = 695700              Volume, 10^12 km^3    = 1412000
  Solar radius (IAU)    = 696000 km           Mean density, g/cm^3  = 1.408
  Radius (photosphere)  = 696500 km           Angular diam at 1 AU  = 1919.3"
  Photosphere temp., K  = 6600 (bottom)       Photosphere temp., K  = 4400(top)
  Photospheric depth    = ~500 km             Chromospheric depth   = ~2500 km
  Flatness, f           = 0.00005             Adopted sid. rot. per.= 25.38 d
  Surface gravity       =  274.0 m/s^2        Escape speed, km/s    =  617.7
  Pole (RA,DEC), deg.   = (286.13, 63.87)     Obliquity to ecliptic = 7.25 deg.
  Solar constant (1 AU) = 1367.6 W/m^2        Luminosity, 10^24 J/s = 382.8
  Mass-energy conv rate = 4.260 x 10^9 kg/s   Effective temp, K     = 5772
  Sunspot cycle         = 11.4 yr             Cycle 24 sunspot min. = 2008 A.D.

  Motion relative to nearby stars = apex : R.A.= 271 deg.; DEC.= +30 deg.
                                    speed: 19.4 km/s (0.0112 au/day)
  Motion relative to 2.73K BB/CBR = apex : l= 264.7 +- 0.8; b= 48.2 +- 0.5 deg.
                                    speed: 369 +-11 km/s
*******************************************************************************
 
 
*******************************************************************************
Ephemeris / MAIL_REQUEST Mon Jun 20 07:33:13 2022 Pasadena, USA  / Horizons    
*******************************************************************************
Target body name: Sun (10)                        {source: DE441}
Center body name: Earth (399)                     {source: DE441}
Center-site name: GEOCENTRIC
*******************************************************************************
Start time      : A.D. 2015-Mar-12 00:00:00.0000 UT      
Stop  time      : A.D. 2015-Mar-13 00:00:00.0000 UT      
Step-size       : 60 minutes
*******************************************************************************
Target pole/equ : IAU_SUN                         {East-longitude positive}
Target radii    : 696000.0 x 696000.0 x 696000.0 k{Equator, meridian, pole}    
Center geodetic : 0.00000000,0.00000000,0.0000000 {E-lon(deg),Lat(deg),Alt(km)}
Center cylindric: 0.00000000,0.00000000,0.0000000 {E-lon(deg),Dxy(km),Dz(km)}
Center pole/equ : ITRF93                          {East-longitude positive}
Center radii    : 6378.1 x 6378.1 x 6356.8 km     {Equator, meridian, pole}    
Target primary  : Sun
Vis. interferer : MOON (R_eq= 1737.400) km        {source: DE441}
Rel. light bend : Sun, EARTH                      {source: DE441}
Rel. lght bnd GM: 1.3271E+11, 3.9860E+05 km^3/s^2                              
Atmos refraction: NO (AIRLESS)
RA format       : HMS
Time format     : BOTH
EOP file        : eop.220617.p220909                                           
EOP coverage    : DATA-BASED 1962-JAN-20 TO 2022-JUN-17. PREDICTS-> 2022-SEP-08
Units conversion: 1 au= 149597870.700 km, c= 299792.458 km/s, 1 day= 86400.0 s 
Table cut-offs 1: Elevation (-90.0deg=NO ),Airmass (>38.000=NO), Daylight (NO )
Table cut-offs 2: Solar elongation (  0.0,180.0=NO ),Local Hour Angle( 0.0=NO )
Table cut-offs 3: RA/DEC angular rate (     0.0=NO )                           
***************************************************************************************************************************************************************************************************************************************************************************************************************************************************************************************
 Date__(UT)__HR:MN:SC.fff Date_________JDUT     R.A._________(ICRF)_________DEC  R.A.___(airless-apparent)___DEC  Azimuth__(a-app)__Elevation    APmag   S-brt      Illu%  Ang-diam  ObsSub-LON ObsSub-LAT    hEcl-Lon   hEcl-Lat                r        rdot             delta      deldot  1-way_down_LT     S-O-T /r     S-T-O  Cnst     ObsEcLon    ObsEcLat  N.Pole-RA  N.Pole-DC
***************************************************************************************************************************************************************************************************************************************************************************************************************************************************************************************
$$SOE
 2015-Mar-12 13:00:00.000 2457094.041666667     23 28 28.117592 -03 24 09.28282  23 29 13.925489 -03 19 13.11480           n.a.          n.a.  -26.756 -10.589  100.00000  1931.640  202.865842  -7.216528       n.a.        n.a.   0.000000000000   0.0000000  0.99360613364597   0.4738117     8.26357023    0.0000 /?    0.0000   Aqr  351.6259543   0.0001334  286.13000   63.87000
 2015-Mar-12 14:00:00.000 2457094.083333333     23 28 37.307297 -03 23 10.29144  23 29 23.114168 -03 18 14.09982           n.a.          n.a.  -26.756 -10.589  100.00000  1931.618  202.316743  -7.216005       n.a.        n.a.   0.000000000000   0.0000000  0.99361753760048   0.4739700     8.26366508    0.0000 /?    0.0000   Aqr  351.6675436   0.0001342  286.13000   63.87000
 2015-Mar-12 15:00:00.000 2457094.125000000     23 28 46.496516 -03 22 11.29580  23 29 32.302372 -03 17 15.08069           n.a.          n.a.  -26.756 -10.589  100.00000  1931.596  201.767642  -7.215477       n.a.        n.a.   0.000000000000   0.0000000  0.99362894535126   0.4741272     8.26375995    0.0000 /?    0.0000   Aqr  351.7091321   0.0001350  286.13000   63.87000
 2015-Mar-12 16:00:00.000 2457094.166666667     23 28 55.685251 -03 21 12.29593  23 29 41.490101 -03 16 16.05746           n.a.          n.a.  -26.756 -10.589  100.00000  1931.574  201.218541  -7.214946       n.a.        n.a.   0.000000000000   0.0000000  0.99364035687334   0.4742834     8.26385486    0.0000 /?    0.0000   Aqr  351.7507198   0.0001358  286.13000   63.87000
 2015-Mar-12 17:00:00.000 2457094.208333333     23 29 04.873502 -03 20 13.29186  23 29 50.677359 -03 15 17.03013           n.a.          n.a.  -26.756 -10.589  100.00000  1931.552  200.669439  -7.214410       n.a.        n.a.   0.000000000000   0.0000000  0.99365177214166   0.4744386     8.26394980    0.0000 /?    0.0000   Aqr  351.7923067   0.0001365  286.13000   63.87000
 2015-Mar-12 18:00:00.000 2457094.250000000     23 29 14.061272 -03 19 14.28361  23 29 59.864146 -03 14 17.99875           n.a.          n.a.  -26.756 -10.589  100.00000  1931.529  200.120336  -7.213871       n.a.        n.a.   0.000000000000   0.0000000  0.99366319113104   0.4745927     8.26404476    0.0000 /?    0.0000   Aqr  351.8338929   0.0001373  286.13000   63.87000
 2015-Mar-12 19:00:00.000 2457094.291666667     23 29 23.248562 -03 18 15.27121  23 30 09.050464 -03 13 18.96333           n.a.          n.a.  -26.756 -10.589  100.00000  1931.507  199.571232  -7.213329       n.a.        n.a.   0.000000000000   0.0000000  0.99367461381619   0.4747457     8.26413976    0.0000 /?    0.0000   Psc  351.8754783   0.0001381  286.13000   63.87000
 2015-Mar-12 20:00:00.000 2457094.333333333     23 29 32.435373 -03 17 16.25469  23 30 18.236313 -03 12 19.92390           n.a.          n.a.  -26.756 -10.589  100.00000  1931.485  199.022128  -7.212782       n.a.        n.a.   0.000000000000   0.0000000  0.99368604017172   0.4748977     8.26423479    0.0000 /?    0.0000   Psc  351.9170629   0.0001388  286.13000   63.87000
 2015-Mar-12 21:00:00.000 2457094.375000000     23 29 41.621708 -03 16 17.23407  23 30 27.421697 -03 11 20.88049           n.a.          n.a.  -26.756 -10.589  100.00000  1931.463  198.473022  -7.212231       n.a.        n.a.   0.000000000000   0.0000000  0.99369747017212   0.4750486     8.26432986    0.0000 /?    0.0000   Psc  351.9586467   0.0001395  286.13000   63.87000
 2015-Mar-12 22:00:00.000 2457094.416666667     23 29 50.807568 -03 15 18.20938  23 30 36.606616 -03 10 21.83314           n.a.          n.a.  -26.756 -10.589  100.00000  1931.441  197.923916  -7.211677       n.a.        n.a.   0.000000000000   0.0000000  0.99370890379177   0.4751985     8.26442495    0.0000 /?    0.0000   Psc  352.0002297   0.0001402  286.13000   63.87000
 2015-Mar-12 23:00:00.000 2457094.458333333     23 29 59.992954 -03 14 19.18065  23 30 45.791071 -03 09 22.78185           n.a.          n.a.  -26.756 -10.589  100.00000  1931.418  197.374808  -7.211119       n.a.        n.a.   0.000000000000   0.0000000  0.99372034100494   0.4753473     8.26452007    0.0000 /?    0.0000   Psc  352.0418120   0.0001409  286.13000   63.87000
 2015-Mar-13 00:00:00.000 2457094.500000000     23 30 09.177867 -03 13 20.14790  23 30 54.975065 -03 08 23.72667           n.a.          n.a.  -26.756 -10.589  100.00000  1931.396  196.825700  -7.210557       n.a.        n.a.   0.000000000000   0.0000000  0.99373178178581   0.4754950     8.26461522    0.0000 /?    0.0000   Psc  352.0833934   0.0001416  286.13000   63.87000
